STARLINK-4349
1 53044U 22077B   26090.83335647  .00300968  36324-4  90619-3 0  9996
2 53044  97.5954 283.4687 0003676 191.9164 199.5705 15.92209520  6049
